O3B MPOWER F1           
1 54755U 22174A   24241.64974439 -.00000030  00000+0  00000+0 0  9993
2 54755   0.0570 345.9542 0006646 165.3129 114.3295  5.00113770 32465
